start=new Date('2022-09-13T00:00:00.000Z').valueOf();
sats=[{"EPOCH":"2022-09-12T11:11:07.603008","RA_OF_ASC_NODE":"311.8442","PERIOD":"95.593","MEAN_MOTION_DOT":"0.00001270","ARG_OF_PERICENTER":"75.3513","MEAN_ANOMALY":"284.7624","MEAN_MOTION_DDOT":"0.0000000000000","TIME_SYSTEM":"UTC","GP_ID":"212406640","INCLINATION":"53.0538","MEAN_ELEMENT_THEORY":"SGP4","CLASSIFICATION_TYPE":"U","ECCENTRICITY":"0.00013350","MEAN_MOTION":"15.06387128","OBJECT_NAME":"STARLINK-2585","COUNTRY_CODE":"US","ELEMENT_SET_NO":"999","SITE":"AFETR","PERIAPSIS":"546.328","REV_AT_EPOCH":"7570","CENTER_NAME":"EARTH","SEMIMAJOR_AXIS":"6925.388","TLE_LINE2":"2 48382  53.0538 311.8442 0001335  75.3513 284.7624 15.06387128 75703","REF_FRAME":"TEME","DECAY_DATE":null,"EPHEMERIS_TYPE":"0","OBJECT_ID":"2021-038AF","RCS_SIZE":"LARGE","TLE_LINE1":"1 48382U 21038AF  22255.46606022  .00001270  00000-0  10414-3 0  9994","NORAD_CAT_ID":"48382","FILE":"3570382","APOAPSIS":"548.178","LAUNCH_DATE":"2021-05-04","OBJECT_TYPE":"PAYLOAD","BSTAR":"0.00010414000000"},{"TLE_LINE2":"2 48383  53.0546 310.0749 0001544  68.1968 291.9185 15.06402828 76393","REF_FRAME":"TEME","DECAY_DATE":null,"EPHEMERIS_TYPE":"0","OBJECT_ID":"2021-038AG","ELEMENT_SET_NO":"999","SITE":"AFETR","PERIAPSIS":"546.136","REV_AT_EPOCH":"7639","CENTER_NAME":"EARTH","SEMIMAJOR_AXIS":"6925.340","APOAPSIS":"548.274","OBJECT_TYPE":"PAYLOAD","LAUNCH_DATE":"2021-05-04","BSTAR":"0.00011705000000","RCS_SIZE":"LARGE","TLE_LINE1":"1 48383U 21038AG  22255.86044967  .00001462  00000-0  11705-3 0  9990","FILE":"3570509","NORAD_CAT_ID":"48383","PERIOD":"95.592","MEAN_MOTION_DOT":"0.00001462","ARG_OF_PERICENTER":"68.1968","MEAN_ANOMALY":"291.9185","EPOCH":"2022-09-12T20:39:02.851488","RA_OF_ASC_NODE":"310.0749","CLASSIFICATION_TYPE":"U","ECCENTRICITY":"0.00015440","MEAN_MOTION":"15.06402828","OBJECT_NAME":"STARLINK-2599","COUNTRY_CODE":"US","MEAN_MOTION_DDOT":"0.0000000000000","TIME_SYSTEM":"UTC","GP_ID":"212430040","MEAN_ELEMENT_THEORY":"SGP4","INCLINATION":"53.0546"},{"MEAN_ANOMALY":"287.3392","ARG_OF_PERICENTER":"72.7757","MEAN_MOTION_DOT":"-0.00000309","PERIOD":"95.593","RA_OF_ASC_NODE":"310.0863","EPOCH":"2022-09-12T20:33:44.882208","COUNTRY_CODE":"US","OBJECT_NAME":"STARLINK-2601","MEAN_MOTION":"15.06393265","ECCENTRICITY":"0.00014580","CLASSIFICATION_TYPE":"U","MEAN_ELEMENT_THEORY":"SGP4","INCLINATION":"53.0558","GP_ID":"212430784","TIME_SYSTEM":"UTC","MEAN_MOTION_DDOT":"0.0000000000000","OBJECT_ID":"2021-038AH","EPHEMERIS_TYPE":"0","DECAY_DATE":null,"REF_FRAME":"TEME","TLE_LINE2":"2 48384  53.0558 310.0863 0001458  72.7757 287.3392 15.06393265 76398","SEMIMAJOR_AXIS":"6925.369","CENTER_NAME":"EARTH","REV_AT_EPOCH":"7639","PERIAPSIS":"546.224","SITE":"AFETR","ELEMENT_SET_NO":"999","BSTAR":"-0.00000182430000","OBJECT_TYPE":"PAYLOAD","LAUNCH_DATE":"2021-05-04","APOAPSIS":"548.244","FILE":"3570509","NORAD_CAT_ID":"48384","TLE_LINE1":"1 48384U 21038AH  22255.85676947 -.00000309  00000-0 -18243-5 0  9996","RCS_SIZE":"LARGE"},{"OBJECT_TYPE":"PAYLOAD","LAUNCH_DATE":"2021-05-04","BSTAR":"0.00025026000000","APOAPSIS":"548.027","NORAD_CAT_ID":"48385","FILE":"3570388","RCS_SIZE":"LARGE","TLE_LINE1":"1 48385U 21038AJ  22255.45499286  .00003449  00000-0  25026-3 0  9993","EPHEMERIS_TYPE":"0","OBJECT_ID":"2021-038AJ","TLE_LINE2":"2 48385  53.0538 311.8910 0001198  76.3470 283.7652 15.06405243 75693","DECAY_DATE":null,"REF_FRAME":"TEME","CENTER_NAME":"EARTH","REV_AT_EPOCH":"7569","SEMIMAJOR_AXIS":"6925.332","ELEMENT_SET_NO":"999","SITE":"AFETR","PERIAPSIS":"546.368","OBJECT_NAME":"STARLINK-2598","COUNTRY_CODE":"US","CLASSIFICATION_TYPE":"U","ECCENTRICITY":"0.00011980","MEAN_MOTION":"15.06405243","GP_ID":"212406739","INCLINATION":"53.0538","MEAN_ELEMENT_THEORY":"SGP4","MEAN_MOTION_DDOT":"0.0000000000000","TIME_SYSTEM":"UTC","ARG_OF_PERICENTER":"76.3470","MEAN_ANOMALY":"283.7652","PERIOD":"95.592","MEAN_MOTION_DOT":"0.00003449","EPOCH":"2022-09-12T10:55:11.383104","RA_OF_ASC_NODE":"311.8910"},{"NORAD_CAT_ID":"48386","FILE":"3570509","RCS_SIZE":"LARGE","TLE_LINE1":"1 48386U 21038AK  22255.84063990  .00000900  00000-0  79326-4 0  9998","BSTAR":"0.00007932600000","OBJECT_TYPE":"PAYLOAD","LAUNCH_DATE":"2021-05-04","APOAPSIS":"548.219","REV_AT_EPOCH":"7523","CENTER_NAME":"EARTH","SEMIMAJOR_AXIS":"6925.350","SITE":"AFETR","ELEMENT_SET_NO":"999","PERIAPSIS":"546.210","EPHEMERIS_TYPE":"0","OBJECT_ID":"2021-038AK","REF_FRAME":"TEME","DECAY_DATE":null,"TLE_LINE2":"2 48386  53.0548 305.1690 0001451  80.6498 279.4655 15.06399681 75239","INCLINATION":"53.0548","MEAN_ELEMENT_THEORY":"SGP4","GP_ID":"212430291","TIME_SYSTEM":"UTC","MEAN_MOTION_DDOT":"0.0000000000000","COUNTRY_CODE":"US","OBJECT_NAME":"STARLINK-2606","ECCENTRICITY":"0.00014510","MEAN_MOTION":"15.06399681","CLASSIFICATION_TYPE":"U","RA_OF_ASC_NODE":"305.1690","EPOCH":"2022-09-12T20:10:31.287360","MEAN_ANOMALY":"279.4655","ARG_OF_PERICENTER":"80.6498","PERIOD":"95.592","MEAN_MOTION_DOT":"0.00000900"},{"ARG_OF_PERICENTER":"77.6027","MEAN_ANOMALY":"282.5135","PERIOD":"95.592","MEAN_MOTION_DOT":"0.00007052","EPOCH":"2022-09-12T20:52:58.490688","RA_OF_ASC_NODE":"304.9977","OBJECT_NAME":"STARLINK-2600","COUNTRY_CODE":"US","CLASSIFICATION_TYPE":"U","ECCENTRICITY":"0.00015460","MEAN_MOTION":"15.06409707","GP_ID":"212430541","INCLINATION":"53.0541","MEAN_ELEMENT_THEORY":"SGP4","MEAN_MOTION_DDOT":"0.0000000000000","TIME_SYSTEM":"UTC","EPHEMERIS_TYPE":"0","OBJECT_ID":"2021-038AL","TLE_LINE2":"2 48387  53.0541 304.9977 0001546  77.6027 282.5135 15.06409707 75247","DECAY_DATE":null,"REF_FRAME":"TEME","CENTER_NAME":"EARTH","REV_AT_EPOCH":"7524","SEMIMAJOR_AXIS":"6925.319","ELEMENT_SET_NO":"999","SITE":"AFETR","PERIAPSIS":"546.113","LAUNCH_DATE":"2021-05-04","OBJECT_TYPE":"PAYLOAD","BSTAR":"0.00049169000000","APOAPSIS":"548.254","NORAD_CAT_ID":"48387","FILE":"3570509","RCS_SIZE":"MEDIUM","TLE_LINE1":"1 48387U 21038AL  22255.87012142  .00007052  00000-0  49169-3 0  9991"},{"GP_ID":"212431285","MEAN_ELEMENT_THEORY":"SGP4","INCLINATION":"53.0538","MEAN_MOTION_DDOT":"0.0000000000000","TIME_SYSTEM":"UTC","OBJECT_NAME":"STARLINK-2594","COUNTRY_CODE":"US","CLASSIFICATION_TYPE":"U","MEAN_MOTION":"15.06397485","ECCENTRICITY":"0.00013220","EPOCH":"2022-09-12T20:47:40.360704","RA_OF_ASC_NODE":"305.0411","ARG_OF_PERICENTER":"82.3920","MEAN_ANOMALY":"277.7219","MEAN_MOTION_DOT":"0.00001620","PERIOD":"95.592","NORAD_CAT_ID":"48388","FILE":"3570509","TLE_LINE1":"1 48388U 21038AM  22255.86643936  .00001620  00000-0  12765-3 0  9999","RCS_SIZE":"LARGE","OBJECT_TYPE":"PAYLOAD","LAUNCH_DATE":"2021-05-04","BSTAR":"0.00012765000000","APOAPSIS":"548.137","SEMIMAJOR_AXIS":"6925.356","REV_AT_EPOCH":"7524","CENTER_NAME":"EARTH","PERIAPSIS":"546.306","SITE":"AFETR","ELEMENT_SET_NO":"999","OBJECT_ID":"2021-038AM","EPHEMERIS_TYPE":"0","TLE_LINE2":"2 48388  53.0538 305.0411 0001322  82.3920 277.7219 15.06397485 75244","REF_FRAME":"TEME","DECAY_DATE":null},{"MEAN_ANOMALY":"284.8645","ARG_OF_PERICENTER":"75.2506","MEAN_MOTION_DOT":"0.00003085","PERIOD":"95.591","RA_OF_ASC_NODE":"300.0957","EPOCH":"2022-09-12T20:28:23.293632","COUNTRY_CODE":"US","OBJECT_NAME":"STARLINK-1904","MEAN_MOTION":"15.06412422","ECCENTRICITY":"0.00014620","CLASSIFICATION_TYPE":"U","INCLINATION":"53.0548","MEAN_ELEMENT_THEORY":"SGP4","GP_ID":"212431515","TIME_SYSTEM":"UTC","MEAN_MOTION_DDOT":"0.0000000000000","EPHEMERIS_TYPE":"0","OBJECT_ID":"2021-038AN","REF_FRAME":"TEME","DECAY_DATE":null,"TLE_LINE2":"2 48389  53.0548 300.0957 0001462  75.2506 284.8645 15.06412422 75300","SEMIMAJOR_AXIS":"6925.310","CENTER_NAME":"EARTH","REV_AT_EPOCH":"7530","PERIAPSIS":"546.163","SITE":"AFETR","ELEMENT_SET_NO":"999","BSTAR":"0.00022582000000","OBJECT_TYPE":"PAYLOAD","LAUNCH_DATE":"2021-05-04","APOAPSIS":"548.188","FILE":"3570509","NORAD_CAT_ID":"48389","TLE_LINE1":"1 48389U 21038AN  22255.85304738  .00003085  00000-0  22582-3 0  9998","RCS_SIZE":"LARGE"},{"FILE":"3570509","NORAD_CAT_ID":"48390","RCS_SIZE":"LARGE","TLE_LINE1":"1 48390U 21038AP  22255.65127192  .00002055  00000-0  15680-3 0  9992","OBJECT_TYPE":"PAYLOAD","LAUNCH_DATE":"2021-05-04","BSTAR":"0.00015680000000","APOAPSIS":"548.056","CENTER_NAME":"EARTH","REV_AT_EPOCH":"7649","SEMIMAJOR_AXIS":"6925.328","SITE":"AFETR","ELEMENT_SET_NO":"999","PERIAPSIS":"546.330","EPHEMERIS_TYPE":"0","OBJECT_ID":"2021-038AP","TLE_LINE2":"2 48390  53.0534 301.0047 0001246  91.7489 268.3643 15.06406591 76497","REF_FRAME":"TEME","DECAY_DATE":null,"GP_ID":"212429791","MEAN_ELEMENT_THEORY":"SGP4","INCLINATION":"53.0534","MEAN_MOTION_DDOT":"0.0000000000000","TIME_SYSTEM":"UTC","OBJECT_NAME":"STARLINK-2586","COUNTRY_CODE":"US","CLASSIFICATION_TYPE":"U","ECCENTRICITY":"0.00012460","MEAN_MOTION":"15.06406591","EPOCH":"2022-09-12T15:37:49.893888","RA_OF_ASC_NODE":"301.0047","ARG_OF_PERICENTER":"91.7489","MEAN_ANOMALY":"268.3643","PERIOD":"95.592","MEAN_MOTION_DOT":"0.00002055"},{"MEAN_MOTION_DDOT":"0.0000000000000","TIME_SYSTEM":"UTC","GP_ID":"212399692","INCLINATION":"53.0545","MEAN_ELEMENT_THEORY":"SGP4","CLASSIFICATION_TYPE":"U","ECCENTRICITY":"0.00014980","MEAN_MOTION":"15.06400601","OBJECT_NAME":"STARLINK-2607","COUNTRY_CODE":"US","EPOCH":"2022-09-12T12:21:26.679168","RA_OF_ASC_NODE":"301.6263","PERIOD":"95.592","MEAN_MOTION_DOT":"0.00000641","ARG_OF_PERICENTER":"71.5535","MEAN_ANOMALY":"288.5617","RCS_SIZE":"LARGE","TLE_LINE1":"1 48391U 21038AQ  22255.51489212  .00000641  00000-0  61928-4 0  9998","FILE":"3570189","NORAD_CAT_ID":"48391","APOAPSIS":"548.249","OBJECT_TYPE":"PAYLOAD","LAUNCH_DATE":"2021-05-04","BSTAR":"0.00006192800000","SITE":"AFETR","ELEMENT_SET_NO":"999","PERIAPSIS":"546.174","CENTER_NAME":"EARTH","REV_AT_EPOCH":"7647","SEMIMAJOR_AXIS":"6925.347","TLE_LINE2":"2 48391  53.0545 301.6263 0001498  71.5535 288.5617 15.06400601 76472","REF_FRAME":"TEME","DECAY_DATE":null,"OBJECT_ID":"2021-038AQ","EPHEMERIS_TYPE":"0"}];
